*******************************************************************************
Ephemeris / WWW_USER Mon Jul 15 19:02:43 2024 Pasadena, USA      / Horizons    
*******************************************************************************
Target body name: (2018 RC)                       {source: JPL#21}
Center body name: Earth (399)                     {source: DE441}
Center-site name: Gemini South Obs., Cerro Pachon
*******************************************************************************
Start time      : A.D. 2018-Dec-03 23:41:00.0000 UT      
Stop  time      : A.D. 2018-Dec-04 09:24:00.0000 UT      
Step-size       : 1 minutes
*******************************************************************************
Target pole/equ : undefined
Target radii    : undefined                                                    
Center geodetic : 289.2634, -30.2406227, 2.71233  {E-lon(deg),Lat(deg),Alt(km)}
Center cylindric: 289.2634,5517.21435,-3194.81213 {E-lon(deg),Dxy(km),Dz(km)}
Center pole/equ : ITRF93                          {East-longitude positive}
Center radii    : 6378.137, 6378.137, 6356.752 km {Equator_a, b, pole_c}       
Target primary  : Sun
Vis. interferer : MOON (R_eq= 1737.400) km        {source: DE441}
Rel. light bend : Sun                             {source: DE441}
Rel. lght bnd GM: 1.3271E+11 km^3/s^2                                          
Small-body perts: Yes                             {source: SB441-N16}
Atmos refraction: NO (AIRLESS)
RA format       : HMS
Time format     : CAL 
Calendar mode   : Mixed Julian/Gregorian
RTS-only print  : NO       
EOP file        : eop.240715.p241008                                           
EOP coverage    : DATA-BASED 1962-JAN-20 TO 2024-JUL-15. PREDICTS-> 2024-OCT-07
Units conversion: 1 au= 149597870.700 km, c= 299792.458 km/s, 1 day= 86400.0 s 
Table cut-offs 1: Elevation (-90.0deg=NO ),Airmass (>38.000=NO), Daylight (YES)
Table cut-offs 2: Solar elongation (  0.0,180.0=NO ),Local Hour Angle( 0.0=NO )
Table cut-offs 3: RA/DEC angular rate (     0.0=NO )                           
*******************************************************************************
Initial IAU76/J2000 heliocentric ecliptic osculating elements (au, days, deg.):
  EPOCH=  2458369.5 ! 2018-Sep-08.00 (TDB)         Residual RMS= .84866        
   EC= .2426621660028976   QR= .647471518312811    TP= 2458473.8617576878      
   OM= 346.8893436915528   W=  145.8737085184167   IN= 1.612045057594462       
  Equivalent ICRF heliocentric cartesian coordinates (au, au/d):
   X= 9.781363708094483E-01  Y=-2.377942828764822E-01  Z=-1.040448782093900E-01
  VX= 1.501011538102481E-03 VY= 1.393070215815854E-02 VZ= 6.509326736836346E-03
Asteroid physical parameters (km, seconds, rotational period in hours):        
   GM= n.a.                RAD= n.a.               ROTPER= .16548              
   H= 24.93                G= .150                 B-V= n.a.                   
                           ALBEDO= n.a.            STYP= n.a.                  
*******************************************************************************
 Date__(UT)__HR:MN     R.A._________(ICRF)_________DEC
******************************************************
$$SOE
 2018-Dec-04 05:50     14 00 00.693356 -09 34 36.09000
 2018-Dec-04 05:51     14 00 00.802667 -09 34 36.92448
 2018-Dec-04 05:52     14 00 00.911961 -09 34 37.75899
 2018-Dec-04 05:53     14 00 01.021238 -09 34 38.59353
 2018-Dec-04 05:54     14 00 01.130498 -09 34 39.42809
 2018-Dec-04 05:55     14 00 01.239741 -09 34 40.26269
 2018-Dec-04 05:56     14 00 01.348967 -09 34 41.09731
 2018-Dec-04 05:57     14 00 01.458175 -09 34 41.93197
 2018-Dec-04 05:58     14 00 01.567367 -09 34 42.76665
 2018-Dec-04 05:59     14 00 01.676541 -09 34 43.60136
 2018-Dec-04 06:00     14 00 01.785697 -09 34 44.43610
 2018-Dec-04 06:01     14 00 01.894836 -09 34 45.27087
 2018-Dec-04 06:02     14 00 02.003958 -09 34 46.10567
 2018-Dec-04 06:03     14 00 02.113063 -09 34 46.94049
 2018-Dec-04 06:04     14 00 02.222149 -09 34 47.77534
 2018-Dec-04 06:05     14 00 02.331219 -09 34 48.61022
 2018-Dec-04 06:06     14 00 02.440270 -09 34 49.44512
 2018-Dec-04 06:07     14 00 02.549304 -09 34 50.28006
 2018-Dec-04 06:08     14 00 02.658321 -09 34 51.11501
 2018-Dec-04 06:09     14 00 02.767319 -09 34 51.95000
 2018-Dec-04 06:10     14 00 02.876300 -09 34 52.78501
 2018-Dec-04 06:11     14 00 02.985263 -09 34 53.62005
 2018-Dec-04 06:12     14 00 03.094208 -09 34 54.45511
 2018-Dec-04 06:13     14 00 03.203136 -09 34 55.29020
 2018-Dec-04 06:14     14 00 03.312045 -09 34 56.12531
 2018-Dec-04 06:15     14 00 03.420937 -09 34 56.96045
 2018-Dec-04 06:16     14 00 03.529810 -09 34 57.79562
 2018-Dec-04 06:17     14 00 03.638665 -09 34 58.63081
 2018-Dec-04 06:18     14 00 03.747503 -09 34 59.46602
 2018-Dec-04 06:19     14 00 03.856322 -09 35 00.30126
 2018-Dec-04 06:20     14 00 03.965123 -09 35 01.13652
 2018-Dec-04 06:21     14 00 04.073906 -09 35 01.97180
 2018-Dec-04 06:22     14 00 04.182671 -09 35 02.80711
 2018-Dec-04 06:23     14 00 04.291417 -09 35 03.64245
 2018-Dec-04 06:24     14 00 04.400145 -09 35 04.47780
 2018-Dec-04 06:25     14 00 04.508855 -09 35 05.31318
 2018-Dec-04 06:26     14 00 04.617547 -09 35 06.14858
 2018-Dec-04 06:27     14 00 04.726220 -09 35 06.98401
 2018-Dec-04 06:28     14 00 04.834875 -09 35 07.81945
 2018-Dec-04 06:29     14 00 04.943511 -09 35 08.65492
 2018-Dec-04 06:30     14 00 05.052129 -09 35 09.49041
 2018-Dec-04 06:31     14 00 05.160728 -09 35 10.32592
 2018-Dec-04 06:32     14 00 05.269309 -09 35 11.16146
 2018-Dec-04 06:33     14 00 05.377871 -09 35 11.99701
 2018-Dec-04 06:34     14 00 05.486414 -09 35 12.83259
 2018-Dec-04 06:35     14 00 05.594939 -09 35 13.66819
 2018-Dec-04 06:36     14 00 05.703445 -09 35 14.50380
 2018-Dec-04 06:37     14 00 05.811933 -09 35 15.33944
 2018-Dec-04 06:38     14 00 05.920401 -09 35 16.17510
 2018-Dec-04 06:39     14 00 06.028851 -09 35 17.01078
 2018-Dec-04 06:40     14 00 06.137283 -09 35 17.84648
 2018-Dec-04 06:41     14 00 06.245695 -09 35 18.68219
 2018-Dec-04 06:42     14 00 06.354089 -09 35 19.51793
 2018-Dec-04 06:43     14 00 06.462463 -09 35 20.35369
 2018-Dec-04 06:44     14 00 06.570819 -09 35 21.18946
 2018-Dec-04 06:45     14 00 06.679156 -09 35 22.02525
 2018-Dec-04 06:46     14 00 06.787474 -09 35 22.86106
 2018-Dec-04 06:47     14 00 06.895773 -09 35 23.69689
 2018-Dec-04 06:48     14 00 07.004052 -09 35 24.53274
 2018-Dec-04 06:49     14 00 07.112313 -09 35 25.36861
 2018-Dec-04 06:50     14 00 07.220555 -09 35 26.20449
 2018-Dec-04 06:51     14 00 07.328778 -09 35 27.04039
 2018-Dec-04 06:52     14 00 07.436982 -09 35 27.87631
 2018-Dec-04 06:53     14 00 07.545166 -09 35 28.71224
 2018-Dec-04 06:54     14 00 07.653331 -09 35 29.54819
 2018-Dec-04 06:55     14 00 07.761478 -09 35 30.38416
 2018-Dec-04 06:56     14 00 07.869605 -09 35 31.22014
 2018-Dec-04 06:57     14 00 07.977712 -09 35 32.05614
 2018-Dec-04 06:58     14 00 08.085801 -09 35 32.89215
 2018-Dec-04 06:59     14 00 08.193870 -09 35 33.72818
 2018-Dec-04 07:00     14 00 08.301920 -09 35 34.56423
 2018-Dec-04 07:01     14 00 08.409951 -09 35 35.40029
 2018-Dec-04 07:02     14 00 08.517962 -09 35 36.23636
 2018-Dec-04 07:03     14 00 08.625954 -09 35 37.07245
 2018-Dec-04 07:04     14 00 08.733927 -09 35 37.90856
 2018-Dec-04 07:05     14 00 08.841880 -09 35 38.74467
 2018-Dec-04 07:06     14 00 08.949814 -09 35 39.58081
 2018-Dec-04 07:07     14 00 09.057728 -09 35 40.41695
 2018-Dec-04 07:08     14 00 09.165624 -09 35 41.25311
 2018-Dec-04 07:09     14 00 09.273499 -09 35 42.08928
 2018-Dec-04 07:10     14 00 09.381355 -09 35 42.92547
 2018-Dec-04 07:11     14 00 09.489192 -09 35 43.76166
 2018-Dec-04 07:12     14 00 09.597009 -09 35 44.59787
 2018-Dec-04 07:13     14 00 09.704807 -09 35 45.43410
 2018-Dec-04 07:14     14 00 09.812585 -09 35 46.27033
 2018-Dec-04 07:15     14 00 09.920343 -09 35 47.10658
 2018-Dec-04 07:16     14 00 10.028082 -09 35 47.94283
 2018-Dec-04 07:17     14 00 10.135802 -09 35 48.77910
 2018-Dec-04 07:18     14 00 10.243502 -09 35 49.61538
 2018-Dec-04 07:19  r  14 00 10.351182 -09 35 50.45167
 2018-Dec-04 07:20     14 00 10.458842 -09 35 51.28798
 2018-Dec-04 07:21     14 00 10.566483 -09 35 52.12429
 2018-Dec-04 07:22     14 00 10.674105 -09 35 52.96061
 2018-Dec-04 07:23     14 00 10.781706 -09 35 53.79694
 2018-Dec-04 07:24     14 00 10.889288 -09 35 54.63328
 2018-Dec-04 07:25     14 00 10.996851 -09 35 55.46963
 2018-Dec-04 07:26     14 00 11.104394 -09 35 56.30600
 2018-Dec-04 07:27     14 00 11.211917 -09 35 57.14237
 2018-Dec-04 07:28     14 00 11.319420 -09 35 57.97874
 2018-Dec-04 07:29     14 00 11.426904 -09 35 58.81513
 2018-Dec-04 07:30     14 00 11.534367 -09 35 59.65153
 2018-Dec-04 07:31     14 00 11.641812 -09 36 00.48793
 2018-Dec-04 07:32     14 00 11.749236 -09 36 01.32434
 2018-Dec-04 07:33     14 00 11.856641 -09 36 02.16076
 2018-Dec-04 07:34     14 00 11.964026 -09 36 02.99718
 2018-Dec-04 07:35     14 00 12.071391 -09 36 03.83362
 2018-Dec-04 07:36     14 00 12.178736 -09 36 04.67006
 2018-Dec-04 07:37     14 00 12.286062 -09 36 05.50651
 2018-Dec-04 07:38     14 00 12.393368 -09 36 06.34296
 2018-Dec-04 07:39     14 00 12.500654 -09 36 07.17942
 2018-Dec-04 07:40     14 00 12.607920 -09 36 08.01588
 2018-Dec-04 07:41     14 00 12.715167 -09 36 08.85235
 2018-Dec-04 07:42     14 00 12.822394 -09 36 09.68883
 2018-Dec-04 07:43     14 00 12.929601 -09 36 10.52531
 2018-Dec-04 07:44     14 00 13.036788 -09 36 11.36180
 2018-Dec-04 07:45     14 00 13.143955 -09 36 12.19829
 2018-Dec-04 07:46     14 00 13.251103 -09 36 13.03479
 2018-Dec-04 07:47  m  14 00 13.358230 -09 36 13.87129
 2018-Dec-04 07:48  m  14 00 13.465338 -09 36 14.70780
 2018-Dec-04 07:49  m  14 00 13.572427 -09 36 15.54430
 2018-Dec-04 07:50  m  14 00 13.679495 -09 36 16.38082
 2018-Dec-04 07:51  m  14 00 13.786543 -09 36 17.21733
 2018-Dec-04 07:52  m  14 00 13.893572 -09 36 18.05385
